{
  "type": "FeatureCollection",
  "features": [
    {
      "type": "Feature",
      "properties": {
        "norad_id": 66174,
        "name": "HTV-X1",
        "group": "stations",
        "lat": 7.248007630018585,
        "lon": -100.27776288952602,
        "alt_km": 418.31644397231685,
        "timestamp": "2025-12-24T05:51:18.359527+00:00",
        "meta_object_name": "HTV-X1",
        "meta_object_id": "2025-241A",
        "meta_epoch": "2025-12-23T18:17:18.636000",
        "meta_mean_motion": 15.49761422,
        "meta_eccentricity": 0.00031718,
        "meta_inclination": 51.6321,
        "meta_ra_of_asc_node": 87.8933,
        "meta_arg_of_pericenter": 292.1344,
        "meta_mean_anomaly": 67.9308,
        "meta_ephemeris_type": 0,
        "meta_classification_type": "U",
        "meta_norad_cat_id": 66174,
        "meta_element_set_no": 999,
        "meta_rev_at_epoch": 51,
        "meta_bstar": 0.00020966669,
        "meta_mean_motion_dot": 0.00011429,
        "meta_mean_motion_ddot": 0,
        "tle_line1": "1 66174U 25241A   25357.76202125  .00011429  00000+0  20967-3 0  9998",
        "tle_line2": "2 66174  51.6321  87.8933 0003171 292.1344  67.9308 15.49761422   519"
      },
      "geometry": {
        "type": "Point",
        "coordinates": [
          -100.27776288952602,
          7.248007630018585
        ]
      }
    },
    {
      "type": "Feature",
      "properties": {
        "norad_id": 66515,
        "name": "SZ-21 MODULE",
        "group": "stations",
        "lat": 33.59230835089867,
        "lon": -5.408755186520072,
        "alt_km": 373.4226988732953,
        "timestamp": "2025-12-24T05:51:18.359537+00:00",
        "meta_object_name": "SZ-21 MODULE",
        "meta_object_id": "2025-246C",
        "meta_epoch": "2025-12-23T06:36:43.308864",
        "meta_mean_motion": 15.6302066,
        "meta_eccentricity": 0.00050381,
        "meta_inclination": 41.4773,
        "meta_ra_of_asc_node": 311.7518,
        "meta_arg_of_pericenter": 316.6622,
        "meta_mean_anomaly": 43.3822,
        "meta_ephemeris_type": 0,
        "meta_classification_type": "U",
        "meta_norad_cat_id": 66515,
        "meta_element_set_no": 999,
        "meta_rev_at_epoch": 609,
        "meta_bstar": 0.000303255,
        "meta_mean_motion_dot": 0.00028121,
        "meta_mean_motion_ddot": 0,
        "tle_line1": "1 66515U 25246C   25357.27550126  .00028121  00000+0  30326-3 0  9992",
        "tle_line2": "2 66515  41.4773 311.7518 0005038 316.6622  43.3822 15.63020660  6095"
      },
      "geometry": {
        "type": "Point",
        "coordinates": [
          -5.408755186520072,
          33.59230835089867
        ]
      }
    },
    {
      "type": "Feature",
      "properties": {
        "norad_id": 66645,
        "name": "SHENZHOU-22",
        "group": "stations",
        "lat": 5.681380119775626,
        "lon": -46.69083442877426,
        "alt_km": 390.5808927619819,
        "timestamp": "2025-12-24T05:51:18.359547+00:00",
        "meta_object_name": "SHENZHOU-22",
        "meta_object_id": "2025-272A",
        "meta_epoch": "2025-12-23T22:08:03.098976",
        "meta_mean_motion": 15.5961343,
        "meta_eccentricity": 0.00080636,
        "meta_inclination": 41.4684,
        "meta_ra_of_asc_node": 308.7959,
        "meta_arg_of_pericenter": 129.7983,
        "meta_mean_anomaly": 230.3567,
        "meta_ephemeris_type": 0,
        "meta_classification_type": "U",
        "meta_norad_cat_id": 66645,
        "meta_element_set_no": 999,
        "meta_rev_at_epoch": 26550,
        "meta_bstar": 0.00017429265,
        "meta_mean_motion_dot": 0.0001399,
        "meta_mean_motion_ddot": 0,
        "tle_line1": "1 66645U 25272A   25357.92225809  .00013990  00000+0  17429-3 0  9991",
        "tle_line2": "2 66645  41.4684 308.7959 0008063 129.7983 230.3567 15.59613430265504"
      },
      "geometry": {
        "type": "Point",
        "coordinates": [
          -46.69083442877426,
          5.681380119775626
        ]
      }
    },
    {
      "type": "Feature",
      "properties": {
        "norad_id": 66664,
        "name": "SOYUZ-MS 28",
        "group": "stations",
        "lat": 7.248006118200591,
        "lon": -100.27776166791779,
        "alt_km": 418.3164441284807,
        "timestamp": "2025-12-24T05:51:18.359557+00:00",
        "meta_object_name": "SOYUZ-MS 28",
        "meta_object_id": "2025-275A",
        "meta_epoch": "2025-12-23T18:17:18.636000",
        "meta_mean_motion": 15.49761422,
        "meta_eccentricity": 0.00031718,
        "meta_inclination": 51.6321,
        "meta_ra_of_asc_node": 87.8933,
        "meta_arg_of_pericenter": 292.1344,
        "meta_mean_anomaly": 67.9308,
        "meta_ephemeris_type": 0,
        "meta_classification_type": "U",
        "meta_norad_cat_id": 66664,
        "meta_element_set_no": 999,
        "meta_rev_at_epoch": 128,
        "meta_bstar": 0.00020966669,
        "meta_mean_motion_dot": 0.00011429,
        "meta_mean_motion_ddot": 0,
        "tle_line1": "1 66664U 25275A   25357.76202125  .00011429  00000+0  20967-3 0  9999",
        "tle_line2": "2 66664  51.6321  87.8933 0003171 292.1344  67.9308 15.49761422  1288"
      },
      "geometry": {
        "type": "Point",
        "coordinates": [
          -100.27776166791779,
          7.248006118200591
        ]
      }
    },
    {
      "type": "Feature",
      "properties": {
        "norad_id": 66906,
        "name": "1998-067XS",
        "group": "stations",
        "lat": -47.708713630000226,
        "lon": -34.091672470587554,
        "alt_km": 415.90645514834705,
        "timestamp": "2025-12-24T05:51:18.359567+00:00",
        "meta_object_name": "1998-067XS",
        "meta_object_id": "1998-067XS",
        "meta_epoch": "2025-12-23T13:19:00.111360",
        "meta_mean_motion": 15.51136039,
        "meta_eccentricity": 0.00028154,
        "meta_inclination": 51.6316,
        "meta_ra_of_asc_node": 88.7613,
        "meta_arg_of_pericenter": 256.8779,
        "meta_mean_anomaly": 103.1896,
        "meta_ephemeris_type": 0,
        "meta_classification_type": "U",
        "meta_norad_cat_id": 66906,
        "meta_element_set_no": 999,
        "meta_rev_at_epoch": 329,
        "meta_bstar": 0.00048512679,
        "meta_mean_motion_dot": 0.0002847,
        "meta_mean_motion_ddot": 0,
        "tle_line1": "1 66906U 98067XS  25357.55486240  .00028470  00000+0  48513-3 0  9997",
        "tle_line2": "2 66906  51.6316  88.7613 0002815 256.8779 103.1896 15.51136039  3290"
      },
      "geometry": {
        "type": "Point",
        "coordinates": [
          -34.091672470587554,
          -47.708713630000226
        ]
      }
    },
    {
      "type": "Feature",
      "properties": {
        "norad_id": 66907,
        "name": "1998-067XT",
        "group": "stations",
        "lat": -31.120153870103568,
        "lon": 56.6217375529244,
        "alt_km": 409.7673227009882,
        "timestamp": "2025-12-24T05:51:18.359577+00:00",
        "meta_object_name": "1998-067XT",
        "meta_object_id": "1998-067XT",
        "meta_epoch": "2025-12-23T11:29:49.841376",
        "meta_mean_motion": 15.52745506,
        "meta_eccentricity": 0.0003882,
        "meta_inclination": 51.6313,
        "meta_ra_of_asc_node": 89.0045,
        "meta_arg_of_pericenter": 291.7662,
        "meta_mean_anomaly": 68.2915,
        "meta_ephemeris_type": 0,
        "meta_classification_type": "U",
        "meta_norad_cat_id": 66907,
        "meta_element_set_no": 999,
        "meta_rev_at_epoch": 328,
        "meta_bstar": 0.0010348952,
        "meta_mean_motion_dot": 0.00065231,
        "meta_mean_motion_ddot": 0,
        "tle_line1": "1 66907U 98067XT  25357.47904909  .00065231  00000+0  10349-2 0  9997",
        "tle_line2": "2 66907  51.6313  89.0045 0003882 291.7662  68.2915 15.52745506  3283"
      },
      "geometry": {
        "type": "Point",
        "coordinates": [
          56.6217375529244,
          -31.120153870103568
        ]
      }
    },
    {
      "type": "Feature",
      "properties": {
        "norad_id": 66908,
        "name": "1998-067XU",
        "group": "stations",
        "lat": -27.059557296958126,
        "lon": 61.31066692119576,
        "alt_km": 409.3611136690315,
        "timestamp": "2025-12-24T05:51:18.359587+00:00",
        "meta_object_name": "1998-067XU",
        "meta_object_id": "1998-067XU",
        "meta_epoch": "2025-12-23T11:28:24.726144",
        "meta_mean_motion": 15.52842233,
        "meta_eccentricity": 0.00039209,
        "meta_inclination": 51.6312,
        "meta_ra_of_asc_node": 88.9976,
        "meta_arg_of_pericenter": 289.9814,
        "meta_mean_anomaly": 70.0754,
        "meta_ephemeris_type": 0,
        "meta_classification_type": "U",
        "meta_norad_cat_id": 66908,
        "meta_element_set_no": 999,
        "meta_rev_at_epoch": 328,
        "meta_bstar": 0.0010206619,
        "meta_mean_motion_dot": 0.00064549,
        "meta_mean_motion_ddot": 0,
        "tle_line1": "1 66908U 98067XU  25357.47806396  .00064549  00000+0  10207-2 0  9993",
        "tle_line2": "2 66908  51.6312  88.9976 0003920 289.9814  70.0754 15.52842233  3282"
      },
      "geometry": {
        "type": "Point",
        "coordinates": [
          61.31066692119576,
          -27.059557296958126
        ]
      }
    }
  ]
}